USA 270                 
1 41744U 16052A   24034.37488809 -.00000324  00000+0  00000+0 0  9992
2 41744   1.9684  88.2838 0000931 345.3645 298.3173  1.00419381 19459
USA 271                 
1 41745U 16052B   24034.28394934  .00000045  00000+0  00000+0 0  9997
2 41745   1.9417  88.2642 0000757 254.4338 259.2330  1.00166289 10067
INTELSAT 36 (IS-36)     
1 41747U 16053A   24045.53901556 -.00000029  00000+0  00000+0 0  9997
2 41747   0.0151  70.7627 0001051 305.2261  30.5730  1.00270966 27386
INTELSAT 33E (IS-33E)   
1 41748U 16053B   24045.53736213  .00000044  00000+0  00000+0 0  9990
2 41748   0.0372 272.5025 0001468  39.8130  85.1683  1.00273075 27683
INSAT-3DR               
1 41752U 16054A   24045.54014685 -.00000082  00000+0  00000+0 0  9992
2 41752   0.0668  95.1598 0013661 182.3512 134.9469  1.00270777 27250
GSAT-18                 
1 41793U 16060A   24045.46852720 -.00000082  00000+0  00000+0 0  9995
2 41793   0.0124 117.2646 0002112 136.6585 132.6990  1.00270744 26968
SKY MUSTER 2 (NBN1B)    
1 41794U 16060B   24045.63412850 -.00000250  00000+0  00000+0 0  9998
2 41794   0.0144 114.5858 0001760 203.9107 198.7339  1.00269096 26960
HIMAWARI-9              
1 41836U 16064A   24045.57757748 -.00000280  00000+0  00000+0 0  9993
2 41836   0.0393 271.9597 0001037  59.9630 160.8341  1.00270303 26649
SHIJIAN-17 (SJ-17)      
1 41838U 16065A   24045.70200900 -.00000051  00000+0  00000+0 0  9990
2 41838   3.5705  82.8625 0004537 284.2138 197.2479  1.00274412 26675
GOES 16                 
1 41866U 16071A   24045.51047212 -.00000253  00000+0  00000+0 0  9996
2 41866   0.0903 269.9938 0000984  80.0627 262.5035  1.00271366 26545
TIANLIAN 1-04           
1 41869U 16072A   24045.56059716  .00000025  00000+0  00000+0 0  9993
2 41869   0.1340  93.7034 0023350  57.1411  11.7761  1.00270580 26752
WGS F8 (USA 272)        
1 41879U 16075A   24045.57757748 -.00000208  00000+0  00000+0 0  9992
2 41879   0.0191  89.5298 0000090 233.8067 178.4765  1.00272240 26263
FENGYUN 4A              
1 41882U 16077A   24045.63538774 -.00000335  00000+0  00000+0 0  9992
2 41882   0.1444  75.9055 0004584 337.1016  64.5453  1.00272978 26372
ECHOSTAR 19             
1 41893U 16079A   24045.48521549 -.00000143  00000+0  00000+0 0  9998
2 41893   0.0151 110.0803 0001781 222.1578 249.3051  1.00270697 26151
JCSAT-110A (JCSAT-15)   
1 41903U 16082A   24045.60510205 -.00000356  00000+0  00000+0 0  9991
2 41903   0.0110 112.4201 0001347 198.5380 161.0332  1.00271972 26206
STAR ONE D1             
1 41904U 16082B   24045.50873167 -.00000216  00000+0  00000+0 0  9995
2 41904   0.0379 268.5704 0002104  49.6009 284.9738  1.00273646 26217
TJS-2                   
1 41911U 17001A   24045.53866747 -.00000010  00000+0  00000+0 0  9996
2 41911   0.2564  81.2986 0003193 229.1032  93.9895  1.00270180 26161
SBIRS GEO-4 (USA 273)   
1 41937U 17004A   24045.50620801 -.00000147  00000+0  00000+0 0  9994
2 41937   1.4654 348.3179 0002457 330.4996 270.6020  1.00270927 26040
HISPASAT 36W-1          
1 41942U 17006A   24045.44668451 -.00000249  00000+0  00000+0 0  9991
2 41942   0.0344 314.8738 0000856  14.3831 299.4871  1.00272634 25660
TELKOM 3S               
1 41944U 17007A   24045.59581941 -.00000368  00000+0  00000+0 0  9990
2 41944   0.0069 148.0065 0002328 178.5031 150.0617  1.00269102 25584
INTELSAT 32E (IS-32E)   
1 41945U 17007B   24045.51682479 -.00000274  00000+0  00000+0 0  9997
2 41945   0.0123 103.9597 0000083 117.3767  65.5419  1.00269222 25661
ECHOSTAR 23             
1 42070U 17014A   24045.41507465 -.00000062  00000+0  00000+0 0  9990
2 42070   0.0175 109.6338 0002015 207.9098 225.8826  1.00271083 25362
WGS F9 (USA 275)        
1 42075U 17016A   24045.44007885 -.00000102  00000+0  00000+0 0  9996
2 42075   0.0082 115.8178 0000267 223.4790 311.0306  1.00270890 25337
SES-10                  
1 42432U 17017A   24045.51212556 -.00000277  00000+0  00000+0 0  9998
2 42432   0.0115  67.1560 0002531 254.9064 299.3998  1.00268546 25187
CHINASAT 16 (SJ-13)     
1 42662U 17018A   24045.60510200 -.00000357  00000+0  00000+0 0  9990
2 42662   0.0488  93.5065 0005641 202.5175 176.4101  1.00266698 25171
KOREASAT 7              
1 42691U 17023A   24045.63140875 -.00000367  00000+0  00000+0 0  9999
2 42691   0.0328 356.0126 0000592 285.5231 205.7925  1.00270858 24829
SGDC                    
1 42692U 17023B   24044.80973132 -.00000254  00000+0  00000+0 0  9993
2 42692   0.0040 124.4934 0002539 209.1097  26.3840  1.00269525 24844
GSAT-9                  
1 42695U 17024A   24045.54484608 -.00000292  00000+0  00000+0 0  9996
2 42695   0.1293 269.8024 0001795  73.0143  94.7217  1.00271012 24745
INMARSAT 5-F4           
1 42698U 17025A   24045.53666595  .00000070  00000+0  00000+0 0  9999
2 42698   0.0180 110.5119 0000474 255.2248  27.9730  1.00271374 24718
SES-15                  
1 42709U 17026A   24045.53243884  .00000055  00000+0  00000+0 0  9998
2 42709   0.0206  46.4339 0000552 280.9006 239.2170  1.00274477 25584
QZS-2 (MICHIBIKI-2)     
1 42738U 17028A   24044.44563292 -.00000122  00000+0  00000+0 0  9995
2 42738  40.7752 255.5395 0749361 270.0732 279.4913  1.00269494 24563
VIASAT-2                
1 42740U 17029A   24045.51151640 -.00000269  00000+0  00000+0 0  9990
2 42740   0.0348 262.8793 0001513 111.9823 243.3723  1.00267782 24638
EUTELSAT 172B           
1 42741U 17029B   24045.56646572 -.00000011  00000+0  00000+0 0  9994
2 42741   0.0676 155.1072 0000115  80.5356 284.3295  1.00272436 25177
GSAT-19                 
1 42747U 17031A   24045.53492549  .00000120  00000+0  00000+0 0  9993
2 42747   0.0102 131.9815 0003659 238.8928  13.6140  1.00274379 24576
ECHOSTAR 21             
1 42749U 17032A   24045.53591106  .00000061  00000+0  00000+0 0  9999
2 42749   2.7556 317.2460 0002577 349.5614  40.3979  1.00269541 24555
BULGARIASAT-1           
1 42801U 17038A   24045.31101619  .00000006  00000+0  00000+0 0  9995
2 42801   0.0290  95.9335 0002620 229.8384 291.8911  1.00271543 24277
HELLAS-SAT 3            
1 42814U 17040A   24045.53318503  .00000147  00000+0  00000+0 0  9994
2 42814   0.0588   7.1324 0004350 345.8164  21.9930  1.00270977 24241
GSAT-17                 
1 42815U 17040B   24045.40056251 -.00000263  00000+0  00000+0 0  9990
2 42815   0.0342 102.4001 0005735 181.1897  98.0055  1.00272020 24225
INTELSAT 35E (IS-35E)   
1 42818U 17041A   24045.44694559 -.00000243  00000+0  00000+0 0  9995
2 42818   0.0448 267.7795 0002242  62.6716 299.8764  1.00272520 24259
COSMOS 2520             
1 42907U 17046A   24045.53422931  .00000131  00000+0  00000+0 0  9997
2 42907   0.0253 106.3692 0000643 283.5961 351.3974  1.00275107 23839
TDRS 13                 
1 42915U 17047A   24045.23669883 -.00000103  00000+0  00000+0 0  9993
2 42915   3.7447 342.1173 0012797 108.6282 126.6742  1.00271517 23784
QZS-3 (MICHIBIKI-3)     
1 42917U 17048A   24045.47905694 -.00000354  00000+0  00000+0 0  9993
2 42917   0.0657 147.5237 0002111 185.1180 110.7656  1.00267176 23697
AMAZONAS 5              
1 42934U 17053A   24045.44163720 -.00000287  00000+0  00000+0 0  9996
2 42934   0.0384 304.9753 0005691  13.4907 283.4163  1.00272550 23481
ASIASAT 9               
1 42942U 17057A   24045.12618729 -.00000365  00000+0  00000+0 0  9995
2 42942   0.0142 100.1064 0002270 221.4626 349.5839  1.00272083 23296
INTELSAT 37E (IS-37E)   
1 42950U 17059A   24045.42354145 -.00000146  00000+0  00000+0 0  9995
2 42950   0.0157 115.6132 0002644 202.3281 320.4318  1.00270934 23505
BSAT-4A                 
1 42951U 17059B   24045.60510142 -.00000355  00000+0  00000+0 0  9999
2 42951   0.0569 303.0578 0004255  65.7596 102.9470  1.00271504 23247
QZS-4 (MICHIBIKI-4)     
1 42965U 17062A   24044.19360479 -.00000331  00000+0  00000+0 0  9991
2 42965  40.5697 354.3764 0750547 269.2321  87.2132  1.00288340 23244
SES-11 (ECHOSTAR 105)   
1 42967U 17063A   24045.57617424 -.00000094  00000+0  00000+0 0  9998
2 42967   0.0278  84.5611 0003034 222.5273 299.4360  1.00271208 23161
KOREASAT 5A             
1 42984U 17067A   24045.14285463 -.00000363  00000+0  00000+0 0  9997
2 42984   0.0229  87.6034 0001122 237.0572 343.5682  1.00270058 22965
ALCOMSAT 1              
1 43039U 17078A   24045.44563295 -.00000191  00000+0  00000+0 0  9995
2 43039   0.0669 254.6506 0002522  50.1496 334.7780  1.00271882 22731
SBIRS GEO-3 (USA 282)   
1 43162U 18009A   24045.56529639  .00000125  00000+0  00000+0 0  9990
2 43162   2.5137 331.2475 0001877 350.4384 226.4636  1.00271439 22281
AL YAH 3                
1 43174U 18012A   24045.44981734 -.00000161  00000+0  00000+0 0  9993
2 43174   0.0391 279.7241 0002139  42.5040 323.5417  1.00270705 22287
SES-14                  
1 43175U 18012B   24045.51595455 -.00000283  00000+0  00000+0 0  9998
2 43175   0.0181  81.5329 0001177 232.1364 328.5999  1.00267920 22496
GOES 17                 
1 43226U 18022A   24045.57617424 -.00000095  00000+0  00000+0 0  9994
2 43226   0.0015 333.0561 0001672 322.0570 311.6752  1.00271834 21869
HISPASAT 30W-6          
1 43228U 18023A   24045.45119003 -.00000221  00000+0  00000+0 0  9995
2 43228   0.0449  50.1488 0004702 294.2495 291.9422  1.00270948 21869
SUPERBIRD-B3            
1 43271U 18033A   24045.57202012 -.00000098  00000+0  00000+0 0  9992
2 43271   0.0334 257.8052 0001159  54.4882 199.6752  1.00271312 21509
HYLAS 4                 
1 43272U 18033B   24045.44720666 -.00000238  00000+0  00000+0 0  9995
2 43272   0.0669 271.5030 0001412  77.7752 282.1675  1.00270169 21518
IRNSS-1I                
1 43286U 18035A   24045.17848067  .00000078  00000+0  00000+0 0  9999
2 43286  28.8212  87.5928 0021051 186.7648 348.6065  1.00271865 21517
USA 283                 
1 43339U 18036A   24040.54285469 -.00000319  00000+0  00000+0 0  9995
2 43339   0.0132  95.3677 0000403 310.4871  62.7615  1.00269423 10137
